ONEWEB-0589             
1 54655U 22166P   25203.53876988  .00000135  00000+0  29562-3 0  9993
2 54655  87.9274 309.7545 0002103 124.4279 235.7054 13.21829297127990
ONEWEB-0590             
1 54656U 22166Q   25203.33520268  .00000021  00000+0  19606-4 0  9992
2 54656  87.9269 309.7729 0001524  99.5683 260.5623 13.21826968127952
ONEWEB-0591             
1 54657U 22166R   25203.57504937  .00000024  00000+0  27452-4 0  9995
2 54657  87.9275 309.7481 0001914 104.2434 255.8912 13.21825562128011
ONEWEB-0592             
1 54658U 22166S   25203.57820533 -.00000031  00000+0 -10770-3 0  9993
2 54658  87.9278 309.6988 0001866 104.1863 255.9478 13.21825376127893
ONEWEB-0593             
1 54659U 22166T   25203.37477342  .00000021  00000+0  19423-4 0  9990
2 54659  87.9271 309.7781 0001945 106.2214 253.9134 13.21825370127970
ONEWEB-0594             
1 54660U 22166U   25203.31799655  .00000048  00000+0  83658-4 0  9990
2 54660  87.9277 309.8038 0002006  99.1495 260.9866 13.21824978127988
ONEWEB-0595             
1 54661U 22166V   25203.59870637  .00000033  00000+0  49530-4 0  9996
2 54661  87.9273 309.7249 0001899  95.0574 265.0777 13.21825830127996
ONEWEB-0596             
1 54662U 22166W   25203.57189394 -.00000066  00000+0 -19033-3 0  9990
2 54662  87.9279 309.7442 0001877  99.7405 260.3941 13.21825333127997
ONEWEB-0597             
1 54663U 22166X   25203.55296931  .00000095  00000+0  19772-3 0  9995
2 54663  87.9277 309.7513 0002030 105.1029 255.0330 13.21825510127991
ONEWEB-0600             
1 54664U 22166Y   25203.53563040  .00000123  00000+0  26558-3 0  9994
2 54664  87.9267 309.7523 0002094 103.0087 257.1281 13.21825664127968
ONEWEB-0601             
1 54665U 22166Z   25203.52774166  .00000006  00000+0 -15945-4 0  9997
2 54665  87.9277 309.7676 0001920 110.7075 249.4265 13.21826142128158
ONEWEB-0602             
1 54666U 22166AA  25203.56874036  .00000056  00000+0  10502-3 0  9996
2 54666  87.9280 309.7597 0002121 106.0168 254.1200 13.21826047128000
ONEWEB-0603             
1 54667U 22166AB  25203.57348175  .00000059  00000+0  11030-3 0  9998
2 54667  87.9266 309.6965 0002037 108.1813 251.9543 13.21827149127939
ONEWEB-0604             
1 54668U 22166AC  25203.56086771  .00000066  00000+0  12894-3 0  9996
2 54668  87.9278 309.7204 0002126 105.5460 254.5909 13.21825265128368
ONEWEB-0605             
1 54669U 22166AD  25203.85733338  .00000077  00000+0  15445-3 0  9994
2 54669  87.9274 309.6924 0001671 120.8187 239.3112 13.21824858128479
ONEWEB-0606             
1 54670U 22166AE  25203.57663465 -.00000010  00000+0 -54683-4 0  9995
2 54670  87.9274 309.7594 0001930  95.3352 264.8002 13.21825717128020
ONEWEB-0607             
1 54671U 22166AF  25203.54351085  .00000156  00000+0  34528-3 0  9999
2 54671  87.9272 309.7305 0002000 105.0098 255.1258 13.21824026127997
ONEWEB-0608             
1 54672U 22166AG  25203.54982172  .00000161  00000+0  35950-3 0  9993
2 54672  87.9266 309.7161 0002007 116.7621 243.3719 13.21827066128000
ONEWEB-0610             
1 54673U 22166AH  25203.53091798  .00003406  00000+0  82142-2 0  9997
2 54673  87.9274 309.7530 0001927 120.1792 239.9533 13.21813037127904
ONEWEB-0611             
1 54674U 22166AJ  25203.52458683  .00000066  00000+0  12809-3 0  9990
2 54674  87.9275 309.7515 0002054  93.7656 266.3713 13.21825774127898
ONEWEB-0612             
1 54675U 22166AK  25203.53720158  .00000132  00000+0  28781-3 0  9991
2 54675  87.9273 309.7261 0001969 106.4710 253.6640 13.21824985127882
ONEWEB-0615             
1 54676U 22166AL  25203.59398082  .00000058  00000+0  10882-3 0  9995
2 54676  87.9277 309.7411 0001992  99.4966 260.6393 13.21827325127901
ONEWEB-0655             
1 54677U 22166AM  25203.56715140  .00000124  00000+0  26932-3 0  9998
2 54677  87.9276 309.7511 0002300 103.9518 256.1871 13.21828450127899
ONEWEB-0659             
1 54678U 22166AN  25203.81160220  .00000010  00000+0 -70853-5 0  9998
2 54678  87.9274 309.7036 0001856  96.4847 263.6498 13.21825134128486
ONEWEB-0685             
1 54679U 22166AP  25203.58609663 -.00000006  00000+0 -45422-4 0  9991
2 54679  87.9276 309.7436 0001988 108.4744 251.6606 13.21825096127876
ONEWEB-0712             
1 54680U 22166AQ  25203.61319509  .00000051  00000+0  10040-3 0  9999
2 54680  87.9052 294.4552 0002609 101.5162 258.6262 13.16595654128692
ONEWEB-0714             
1 54681U 22166AR  25203.59240453 -.00000004  00000+0 -41794-4 0  9999
2 54681  87.9279 309.7352 0002065 106.0133 254.1229 13.21826983127990
ONEWEB-0532             
1 55140U 23004A   25203.62223707  .00000040  00000+0  68700-4 0  9993
2 55140  87.9043  71.4567 0001329  82.6454 277.4828 13.17649096124182
ONEWEB-0533             
1 55141U 23004B   25203.57922239  .00000481  00000+0  13014-2 0  9999
2 55141  87.8856  56.1946 0001833  90.4677 269.6662 13.12442520124827
ONEWEB-0541             
1 55142U 23004C   25203.42765985  .00001239  00000+0  34599-2 0  9990
2 55142  87.8820  86.7755 0001622  75.2252 284.9055 13.11414951122721
ONEWEB-0543             
1 55143U 23004D   25203.55629594  .00000059  00000+0  11625-3 0  9995
2 55143  87.9107  41.0033 0002104  89.6273 270.5100 13.18688331126258
ONEWEB-0544             
1 55144U 23004E   25203.54968661  .00000030  00000+0  42916-4 0  9993
2 55144  87.9108  40.9946 0001980  82.5361 277.5996 13.18686509126257
ONEWEB-0560             
1 55145U 23004F   25203.84658976  .00000052  00000+0  99848-4 0  9992
2 55145  87.9114  40.9102 0001989  80.8680 279.2677 13.18687735126306
ONEWEB-0565             
1 55146U 23004G   25203.61237767  .00000021  00000+0  20982-4 0  9998
2 55146  87.9106  41.0150 0001596  70.1572 289.9731 13.18685953126263
ONEWEB-0567             
1 55147U 23004H   25203.60578238  .00000029  00000+0  40465-4 0  9995
2 55147  87.9113  40.9732 0001807  74.6547 285.4785 13.18686129126268
ONEWEB-0569             
1 55148U 23004J   25203.54001967 -.00000258  00000+0 -74129-3 0  9998
2 55148  87.8958  25.6946 0002336  66.6506 293.4868 13.13468895126901
ONEWEB-0570             
1 55149U 23004K   25203.59588497  .00000090  00000+0  19507-3 0  9993
2 55149  87.9108  40.9777 0001186  82.0776 278.0491 13.18690092126255
ONEWEB-0571             
1 55150U 23004L   25203.58928002  .00000084  00000+0  18021-3 0  9997
2 55150  87.9104  40.9855 0002008  49.0749 311.0557 13.18685805126265
ONEWEB-0572             
1 55151U 23004M   25203.57667054  .00000038  00000+0  65196-4 0  9999
2 55151  87.9048  71.4742 0001618  76.0135 284.1177 13.17649594124071
ONEWEB-0573             
1 55152U 23004N   25203.58269572  .00000083  00000+0  17833-3 0  9998
2 55152  87.9105  40.9938 0001393  57.7340 302.3927 13.18684592126254
ONEWEB-0588             
1 55153U 23004P   25203.57608746  .00000074  00000+0  15574-3 0  9998
2 55153  87.9110  40.9787 0001362  79.6876 280.4410 13.18684858126254
ONEWEB-0598             
1 55154U 23004Q   25203.40560550 -.00000454  00000+0 -13167-2 0  9990
2 55154  87.8817  86.8168 0002072  61.0858 299.0478 13.11417183122674
ONEWEB-0599             
1 55155U 23004R   25203.68974456  .00002645  00000+0  67776-2 0  9992
2 55155  87.9045  71.4561 0001909  82.2812 277.8537 13.17636561124096
ONEWEB-0614             
1 55156U 23004S   25203.62939985 -.00000542  00000+0 -15644-2 0  9998
2 55156  87.8816  86.7816 0001481  83.9443 276.1854 13.11415520122644
ONEWEB-0616             
1 55157U 23004T   25203.58005298  .00000059  00000+0  11984-3 0  9990
2 55157  87.9045  71.4688 0002819  85.4233 274.7220 13.17649428124294
ONEWEB-0617             
1 55158U 23004U   25203.61753363 -.00000395  00000+0 -11506-2 0  9992
2 55158  87.8812  86.7632 0001450  75.1278 285.0011 13.11414502122668
ONEWEB-0618             
1 55159U 23004V   25203.56217887  .00001061  00000+0  18268-3 0  9995
2 55159  86.9110 309.5133 0016577  66.8578 293.4381 14.67547453132756
ONEWEB-0619             
1 55160U 23004W   25203.68804127  .00000007  00000+0 -15020-4 0  9993
2 55160  87.9041  71.4243 0001805  97.9846 262.1490 13.17650200124204
ONEWEB-0620             
1 55161U 23004X   25203.61246245 -.00000180  00000+0 -54458-3 0  9998
2 55161  87.8816  86.7853 0001721  70.7215 289.4099 13.11415224122637
ONEWEB-0621             
1 55162U 23004Y   25203.71587688 -.00000270  00000+0 -79829-3 0  9998
2 55162  87.8822  86.7207 0001691  85.6202 274.5119 13.11416652122651
ONEWEB-0622             
1 55163U 23004Z   25203.41578381 -.00000029  00000+0 -11660-3 0  9997
2 55163  87.8817  86.8041 0000995  76.2036 283.9202 13.11417856122575
ONEWEB-0623             
1 55164U 23004AA  25203.60705302  .00000015  00000+0  61217-5 0  9992
2 55164  87.9041  71.4969 0001197 101.0941 259.0325 13.17648848124184
ONEWEB-0624             
1 55165U 23004AB  25203.59015524  .00000271  00000+0  71150-3 0  9990
2 55165  87.8857  56.1868 0001716  85.4476 274.6849 13.12940993124828
ONEWEB-0625             
1 55166U 23004AC  25203.59691173 -.00000028  00000+0 -10646-3 0  9996
2 55166  87.9042  71.4959 0001934  82.4014 277.7338 13.17647332124175
ONEWEB-0626             
1 55167U 23004AD  25203.58679806  .00000004  00000+0 -22294-4 0  9991
2 55167  87.9043  71.4964 0001925  64.4518 295.6813 13.17650060124171
ONEWEB-0627             
1 55168U 23004AE  25203.57499004  .00000019  00000+0  16199-4 0  9993
2 55168  87.9041  71.5006 0001184  89.3016 270.8251 13.17647744124170
ONEWEB-0628             
1 55169U 23004AF  25203.60205891 -.00000046  00000+0 -16192-3 0  9991
2 55169  87.8858  56.1739 0001331 106.2816 253.8459 13.12440749124801
ONEWEB-0629             
1 55170U 23004AG  25203.62646172  .00000017  00000+0  11801-4 0  9995
2 55170  87.9052  71.4803 0001829  93.2287 266.9054 13.17649219124186
ONEWEB-0631             
1 55171U 23004AH  25203.56949335  .00000033  00000+0  51708-4 0  9994
2 55171  87.9120  40.9126 0001478  70.9667 289.1625 13.18686419126239
